GALAXY 11 (G-11)        
1 26038U 99071A   25029.29693644  .00000045  00000+0  00000+0 0  9993
2 26038   5.4586  76.6471 0007182 285.2273  89.8399  0.99028453 92026
INTELSAT 9 (IS-9)       
1 26451U 00043A   25029.12430323 -.00000006  00000+0  00000+0 0  9996
2 26451   9.2771  53.7332 0002745 264.5025 281.3718  1.00271728 39089
INTELSAT 1R (IS-1R)     
1 26608U 00072A   25029.32682334 -.00000135  00000+0  00000+0 0  9998
2 26608   6.8177  70.2845 0010049 248.4735 294.6947  0.98974143 36247
INTELSAT 10 (IS-10)     
1 26766U 01019A   25029.12430323 -.00000001  00000+0  00000+0 0  9994
2 26766   7.8649  64.4036 0003886 243.4340 291.6161  1.00271835 40569
INTELSAT 901 (IS-901)   
1 26824U 01024A   25029.33694227 -.00000193  00000+0  00000+0 0  9995
2 26824   0.0216 107.7659 0002261 245.4907 229.3660  1.00270238 17931
INTELSAT 902 (IS-902)   
1 26900U 01039A   25029.51994140 -.00000276  00000+0  00000+0 0  9995
2 26900   4.8391  77.9409 0004447 234.0775 314.0404  1.00272599 85641
INTELSAT 904 (IS-904)   
1 27380U 02007A   25028.89101431 -.00000207  00000+0  00000+0 0  9991
2 27380   5.6506  75.2225 0003112 252.4013  92.0087  1.00270546 46709
DIRECTV 5 (TEMPO 1)     
1 27426U 02023A   25029.51801389 -.00000049  00000+0  00000+0 0  9993
2 27426   3.5840  81.6506 0003396 243.5583 240.1480  1.00271105 83074
INTELSAT 905 (IS-905)   
1 27438U 02027A   25028.89197000 -.00000178  00000+0  00000+0 0  9991
2 27438   5.4776  75.8588 0002645 244.1614 104.9604  1.00270107 46300
GALAXY 3C (G-3C)        
1 27445U 02030A   25029.52105472 -.00000144  00000+0  00000+0 0  9999
2 27445   2.4372  84.5525 0002683  55.9929  81.1894  1.00270909 41441
INTELSAT 906 (IS-906)   
1 27513U 02041A   25029.19528458  .00000021  00000+0  00000+0 0  9996
2 27513   4.5167  79.1524 0005387 207.4947 336.4549  1.00272400 81972
GALAXY 23 (G-23)        
1 27854U 03034A   25028.58705664  .00000022  00000+0  00000+0 0  9996
2 27854   1.8904  86.0990 0003087 237.2993 255.1187  1.00271861 83483
GALAXY 13 (HORIZONS-1)  
1 27954U 03044A   25029.48069972  .00000142  00000+0  00000+0 0  9996
2 27954   0.1138  96.3587 0002090 241.7507 173.8687  1.00271936 41528
INTELSAT 10-02          
1 28358U 04022A   25028.89657465  .00000000  00000+0  00000+0 0  9999
2 28358   0.0464 260.1974 0000518 110.2451  79.7422  1.00272190 75509
XM-3 (RHYTHM)           
1 28626U 05008A   25026.80802674 -.00000188  00000+0  00000+0 0  9993
2 28626   0.0210 100.7247 0004213 124.7177 106.6323  1.00266564 37549
DIRECTV 8               
1 28659U 05019A   25029.51618940  .00000011  00000+0  00000+0 0  9997
2 28659   0.0207  86.2990 0003047 237.7152 231.7773  1.00270190 72027
GALAXY 28 (G-28)        
1 28702U 05022A   25029.52218417 -.00000177  00000+0  00000+0 0  9990
2 28702   1.9977  85.2638 0006440 200.9853 301.7173  1.00271935 46939
GALAXY 14 (G-14)        
1 28790U 05030A   25029.43747566 -.00000021  00000+0  00000+0 0  9996
2 28790   3.7190  81.2031 0003538 292.2867 117.4641  0.98914595 71246
SPACEWAY 2              
1 28903U 05046B   25029.52609378 -.00000124  00000+0  00000+0 0  9991
2 28903   4.1766  77.5921 0001683  50.5215 121.2510  0.99061231 46288
GALAXY 16 (G-16)        
1 29236U 06023A   25029.52018590 -.00000117  00000+0  00000+0 0  9999
2 29236   0.0597 254.3640 0003101  68.1816 254.6989  1.00272020 67925
DIRECTV 9S              
1 29494U 06043A   25029.51975149 -.00000104  00000+0  00000+0 0  9994
2 29494   1.1160  87.1695 0002911 228.9834 258.7491  1.00271148 46330
GALAXY 17 (G-17)        
1 31307U 07016B   25029.52296608 -.00000198  00000+0  00000+0 0  9991
2 31307   1.6912  86.4419 0005283 206.3654 299.4574  1.00272117 64754
DIRECTV 10              
1 31862U 07032A   25028.59061875 -.00000091  00000+0  00000+0 0  9999
2 31862   0.0062 315.7707 0000580 341.7374 300.4000  1.00271858 40533
INTELSAT 11 (IS-11)     
1 32253U 07044B   25029.33105010 -.00000261  00000+0  00000+0 0  9999
2 32253   2.2496  84.9878 0004076 238.0622 241.9203  1.00269779 63443
HORIZONS-2              
1 32388U 07063B   25029.31083733 -.00000244  00000+0  00000+0 0  9995
2 32388   1.2972  87.0106 0002030 242.5682 197.2903  1.00269034 62760
DIRECTV 11              
1 32729U 08013A   25028.16269502 -.00000111  00000+0  00000+0 0  9995
2 32729   0.0270 280.1126 0000868  85.8064  81.1061  1.00259914 40526
GALAXY 18 (G-18)        
1 32951U 08024A   25029.51507883  .00000034  00000+0  00000+0 0  9994
2 32951   0.0158  71.7608 0002964 248.3492 231.2977  1.00271747 40800
INTELSAT 25 (IS-25)     
1 33153U 08034A   25029.51438426 -.00000215  00000+0  00000+0 0  9998
2 33153   1.4045  86.6655 0002975 232.6002 323.4056  1.00272190 60646
GALAXY 19 (G-19)        
1 33376U 08045A   25028.59166132 -.00000128  00000+0  00000+0 0  9999
2 33376   0.0641 264.8586 0002720  47.6899 291.5288  1.00272662 59845
FM-5                    
1 35493U 09034A   25029.52270545 -.00000191  00000+0  00000+0 0  9998
2 35493   0.0091  31.5788 0002159 140.8886  58.5556  1.00269592 41597
INTELSAT 14 (IS-14)     
1 36097U 09064A   25029.51994140 -.00000265  00000+0  00000+0 0  9997
2 36097   0.0146  17.7315 0002535 295.2484 318.1750  1.00266728 55558
INTELSAT 15 (IS-15)     
1 36106U 09067A   25029.48525994 -.00000176  00000+0  00000+0 0  9995
2 36106   0.0171  64.2523 0002194 258.9796  65.5605  1.00270573 36170
DIRECTV 12              
1 36131U 09075A   25028.59061875 -.00000092  00000+0  00000+0 0  9993
2 36131   0.0023 315.6546 0000581  66.1198 216.2209  1.00271559 41496
INTELSAT 16 (IS-16)     
1 36397U 10006A   25029.52470369 -.00000235  00000+0  00000+0 0  9998
2 36397   0.0167  63.8411 0001767 247.1983 290.6486  1.00269736 54606
XM-5                    
1 37185U 10053A   25028.58827299 -.00000011  00000+0  00000+0 0  9991
2 37185   0.0229  79.1523 0000625  96.5960  48.9306  1.00267829 52422
INTELSAT 17 (IS-17)     
1 37238U 10065B   25029.47341378  .00000008  00000+0  00000+0 0  9996
2 37238   0.0048  71.2038 0002673 254.7086  39.4468  1.00271401 48189
INTELSAT 28 (IS-28)     
1 37392U 11016A   25029.32638895  .00000018  00000+0  00000+0 0  9992
2 37392   0.4991  89.6628 0004019 217.1179 304.2017  1.00142306 48231
INTELSAT 18 (IS-18)     
1 37834U 11056A   25028.64761236  .00000063  00000+0  00000+0 0  9997
2 37834   0.0170  63.0076 0001301 257.5056 220.7602  1.00267790 48757
INTELSAT 22 (IS-22)     
1 38098U 12011A   25029.05401690 -.00000048  00000+0  00000+0 0  9997
2 38098   0.0159  65.9614 0001926 254.3792 259.7068  1.00271247  2133
INTELSAT 19 (IS-19)     
1 38356U 12030A   25029.50326959 -.00000048  00000+0  00000+0 0  9999
2 38356   0.0260  89.1118 0003127 231.8533 155.2149  1.00268921 45398
INTELSAT 20 (IS-20)     
1 38740U 12043A   25029.12473762 -.00000014  00000+0  00000+0 0  9996
2 38740   0.0245  95.1853 0001940  87.6380  59.1730  1.00270198 45778
INTELSAT 21 (IS-21)     
1 38749U 12045A   25029.52549557 -.00000276  00000+0  00000+0 0  9997
2 38749   0.0188  87.9651 0001637 225.8412 306.3879  1.00266451 45478
INTELSAT 23 (IS-23)     
1 38867U 12057A   25029.45780571 -.00000275  00000+0  00000+0 0  9995
2 38867   0.0424 210.6773 0000491 207.1157 182.9357  1.00266715 44895
FM-6                    
1 39360U 13058A   25029.51679757 -.00000007  00000+0  00000+0 0  9999
2 39360   0.0043   4.0916 0000351 212.3067 342.4355  1.00269068 41014
INTELSAT 30 (IS-30)     
1 40271U 14062A   25023.44807477 -.00000124  00000+0  00000+0 0  9996
2 40271   0.0100  43.2886 0001545  83.3962  62.5665  1.00236074  1671
DIRECTV 14              
1 40333U 14078B   25028.34841088 -.00000114  00000+0  00000+0 0  9991
2 40333   0.0149 354.8787 0000386 175.9464 343.2195  1.00273897 36995
DIRECTV 15              
1 40663U 15026A   25029.23360056 -.00000092  00000+0  00000+0 0  9996
2 40663   0.0200  87.7456 0000643  78.0641 304.1347  1.00270614 35415
SKY MEXICO-1            
1 40664U 15026B   25029.52418241 -.00000225  00000+0  00000+0 0  9997
2 40664   0.0225  28.0071 0002298 301.1257 269.7965  1.00270065 35406
INTELSAT 34 (IS-34)     
1 40874U 15039A   25029.33660447 -.00000276  00000+0  00000+0 0  9996
2 40874   0.0284  86.7768 0000259  94.9739  12.7722  1.00266996 34577
INTELSAT 31 (IS-31)     
1 41581U 16035A   25029.16374696 -.00000140  00000+0  00000+0 0  9998
2 41581   0.0142  97.0407 0002016  82.4900 272.9958  1.00270494 31639
INTELSAT 36 (IS-36)     
1 41747U 16053A   25029.48195848 -.00000015  00000+0  00000+0 0  9998
2 41747   0.0097  45.1357 0001156 284.2946  41.5313  1.00270687 30892
INTELSAT 32E (IS-32E)   
1 41945U 17007B   25029.53113285 -.00000260  00000+0  00000+0 0  9991
2 41945   0.0141  76.3760 0000379  38.2491 162.4027  1.00269082 29175
INTELSAT 35E (IS-35E)   
1 42818U 17041A   25029.51438426 -.00000229  00000+0  00000+0 0  9999
2 42818   0.0092 164.9149 0002323 157.6703 317.0921  1.00269875 27762
INTELSAT 37E (IS-37E)   
1 42950U 17059A   25029.50808177 -.00000132  00000+0  00000+0 0  9991
2 42950   0.0281  91.8330 0002514 208.6324 353.4425  1.00269734 27012
AZERSPACE 2 (IS-38)     
1 43632U 18074A   25029.42688187  .00000146  00000+0  00000+0 0  9999
2 43632   0.0141  52.0658 0001414 269.0959   6.5188  1.00270253 23397
HORIZONS-3E             
1 43633U 18074B   25027.35850156 -.00000016  00000+0  00000+0 0  9994
2 43633   0.0147 274.3301 0001029  18.1950 132.3703  1.00272152 23250
AT&T T-16               
1 44333U 19034A   25029.51983838 -.00000105  00000+0  00000+0 0  9992
2 44333   0.0157  70.6078 0001257  69.1336  75.5158  1.00268683 20583
INTELSAT 39 (IS-39)     
1 44476U 19049B   25027.40862229  .00000048  00000+0  00000+0 0  9997
2 44476   0.0280  77.9058 0000939  52.9329 205.1490  1.00269632 20051
GALAXY 30 (G-30)        
1 46114U 20056C   25029.28452315  .00000047  00000+0  00000+0 0  9996
2 46114   0.0158  69.2429 0001925 247.8046 149.1452  1.00270668 16241
GALAXY 33 (G-33)        
1 54026U 22128A   25029.49895022  .00000088  00000+0  00000+0 0  9993
2 54026   0.0150  67.2313 0001830 250.4239 217.9438  1.00272369  8691
GALAXY 34 (G-34)        
1 54027U 22128B   25029.46993878  .00000068  00000+0  00000+0 0  9997
2 54027   0.0125  56.0838 0001865 250.8438 222.1811  1.00272980  8866
GALAXY 31 (G-31)        
1 54243U 22153A   25029.30145424  .00000023  00000+0  00000+0 0  9995
2 54243   0.0142  96.9867 0001272 224.8330 154.4877  1.00271958  2085
GALAXY 32 (G-32)        
1 54244U 22153B   25029.23594633 -.00000164  00000+0  00000+0 0  9995
2 54244   0.0137  68.9103 0002597 267.9626 145.7831  1.00271801  8096
GALAXY 35 (G-35)        
1 54741U 22170A   25029.23559882 -.00000152  00000+0  00000+0 0  9990
2 54741   0.0146  87.2183 0001836 226.4145 166.7873  1.00270629  7849
GALAXY 36 (G-36)        
1 54742U 22170B   25029.52218417 -.00000175  00000+0  00000+0 0  9994
2 54742   0.0196 109.0185 0001663 314.9678 164.0169  1.00265400  7729
GALAXY 37 (G-37)        
1 57493U 23112A   25029.51507883  .00000057  00000+0  00000+0 0  9992
2 57493   0.0161  10.0952 0001853 303.3737 233.9417  1.00270572  5499
